HYPERFIELD-1A           
1 60562U 24149CY  26068.76488211  .00008569  00000+0  30052-3 0  9998
2 60562  97.3842 149.5066 0003865 313.7844  46.3076 15.29681349 86836
STARLINK-34181          
1 64144U 25111X   26068.43060481  .00030236  00000+0  11024-2 0  9990
2 64144  42.9980  79.3386 0001586 254.8289 105.2387 15.27619505 45429
